HAWK-5A                 
1 52757U 22057AB  26193.83644966  .00013121  00000+0  21761-3 0  9996
2 52757  97.6615 354.3619 0003570 347.6384  12.4780 15.52270798230321
HAWK-6B                 
1 55324U 23011A   26193.49366660  .00002500  00000+0  11181-3 0  9998
2 55324  40.4967 204.4428 0003794 226.2355 133.8140 15.23138816191709
HAWK-6C                 
1 55326U 23011C   26193.42747242  .00002614  00000+0  11653-3 0  9992
2 55326  40.4959 201.6644 0004290 217.2820 142.7692 15.23140487191708
HAWK-6A                 
1 55327U 23011D   26193.42750828  .00002533  00000+0  11316-3 0  9993
2 55327  40.4967 203.2914 0003801 214.8254 145.2307 15.23139285191702
HAWK-7A                 
1 56191U 23054P   26193.72443128  .00003180  00000+0  12045-3 0  9994
2 56191  97.2673  80.4129 0001685 346.2656  13.8537 15.27616613180929
HAWK-7B                 
1 56193U 23054R   26193.72435992  .00003053  00000+0  11576-3 0  9993
2 56193  97.2699  78.6857 0001618  20.7154 339.4151 15.27613837180923
HAWK-7C                 
1 56200U 23054Y   26193.65873713  .00003184  00000+0  12060-3 0  9995
2 56200  97.2676  79.3827 0001162   6.2010 353.9244 15.27617444180917
